[
  {
    "name": "PLEIADES NEO 3",
    "line1": "1 48268U 21034A   26014.61678755  .00000001  00000+0  67310-5 0  9998",
    "line2": "2 48268  97.8941  91.5868 0001282  89.0313 271.1047 14.81670705254914",
    "catNr": 48268
  },
  {
    "name": "PLEIADES NEO 4",
    "line1": "1 49070U 21073E   26014.65054007  .00000539  00000+0  75137-4 0  9996",
    "line2": "2 49070  97.8942  91.6160 0001387  91.4734 268.6638 14.81674974238633",
    "catNr": 49070
  }
]